{"name":"Alterswohnung","type":"FeatureCollection"
,"features":[
{"type":"Feature","geometry":{"type":"Point","coordinates":[8.53501069145291,47.3890896385689]},"properties":{"Name":"Siedlung Letten","Adresse":"Nordstrasse 97+101","PLZ":"8037","Ort":"Zürich","Tel":"","www":"http://www.wohnenab60.ch/"}}
,{"type":"Feature","geometry":{"type":"Point","coordinates":[8.52919905415178,47.3873006733175]},"properties":{"Name":"Siedlung Sihlquai","Adresse":"Fabrikstrasse 5","PLZ":"8005","Ort":"Zürich","Tel":"","www":"http://www.wohnenab60.ch/"}}
,{"type":"Feature","geometry":{"type":"Point","coordinates":[8.51385255890579,47.325863513586]},"properties":{"Name":"Siedlung Mittelleimbach","Adresse":"Klebestrasse 9","PLZ":"8041","Ort":"Zürich","Tel":"","www":"http://www.wohnenab60.ch/"}}
,{"type":"Feature","geometry":{"type":"Point","coordinates":[8.48272412642405,47.3974899015183]},"properties":{"Name":"Siedlung Werdhölzli","Adresse":"Bändlistrasse 68 + 70","PLZ":"8064","Ort":"Zürich","Tel":"","www":"http://www.wohnenab60.ch/"}}
,{"type":"Feature","geometry":{"type":"Point","coordinates":[8.59271063829842,47.4002031847672]},"properties":{"Name":"Siedlung Helen Keller","Adresse":"Helen Keller-Strasse 6","PLZ":"8051","Ort":"Zürich","Tel":"","www":"http://www.wohnenab60.ch/"}}
,{"type":"Feature","geometry":{"type":"Point","coordinates":[8.55010194082615,47.3626524198289]},"properties":{"Name":"Siedlung Seefeldstrasse","Adresse":"Seefeldstrasse 50","PLZ":"8008","Ort":"Zürich","Tel":"","www":"http://www.wohnenab60.ch/"}}
,{"type":"Feature","geometry":{"type":"Point","coordinates":[8.51289430318769,47.3584083418812]},"properties":{"Name":"Siedlung Friesenberg","Adresse":"Hegianwandweg 22 + 24","PLZ":"8045","Ort":"Zürich","Tel":"","www":"http://www.wohnenab60.ch/"}}
,{"type":"Feature","geometry":{"type":"Point","coordinates":[8.53781521452019,47.3927689768881]},"properties":{"Name":"Siedlung Schaffhauserplatz","Adresse":"Hofwiesenstrasse 11","PLZ":"8057","Ort":"Zürich","Tel":"","www":"http://www.wohnenab60.ch/"}}
,{"type":"Feature","geometry":{"type":"Point","coordinates":[8.55916703012972,47.3769659848288]},"properties":{"Name":"Siedlung Gladbachstrasse","Adresse":"Gladbachstrasse 126+128","PLZ":"8044","Ort":"Zürich","Tel":"","www":"http://www.wohnenab60.ch/"}}
,{"type":"Feature","geometry":{"type":"Point","coordinates":[8.50863382261986,47.3809176966368]},"properties":{"Name":"Siedlung Hardau","Adresse":"Norastrasse 30","PLZ":"8004","Ort":"Zürich","Tel":"","www":"http://www.wohnenab60.ch/"}}
,{"type":"Feature","geometry":{"type":"Point","coordinates":[8.48373991033299,47.3844649192981]},"properties":{"Name":"Siedlung Feldblume","Adresse":"Schneebelistrasse 5","PLZ":"8048","Ort":"Zürich","Tel":"","www":"http://www.wohnenab60.ch/"}}
,{"type":"Feature","geometry":{"type":"Point","coordinates":[8.52088682846231,47.3719432035723]},"properties":{"Name":"Siedlung Erikastrasse","Adresse":"Erikastrasse / Ecke Seebahnstrasse","PLZ":"8003","Ort":"Zürich","Tel":"","www":""}}
,{"type":"Feature","geometry":{"type":"Point","coordinates":[8.49175202816354,47.3958067886756]},"properties":{"Name":"Siedlung Grünau","Adresse":"Meierwiesenstrasse 38","PLZ":"8064","Ort":"Zürich","Tel":"","www":"http://www.wohnenab60.ch/"}}
,{"type":"Feature","geometry":{"type":"Point","coordinates":[8.51340182802574,47.4235819876846]},"properties":{"Name":"Siedlung Unteraffoltern","Adresse":"Wolfswinkel 7","PLZ":"8046","Ort":"Zürich","Tel":"","www":"http://www.wohnenab60.ch/"}}
,{"type":"Feature","geometry":{"type":"Point","coordinates":[8.56159898965974,47.4037480629264]},"properties":{"Name":"Siedlung Waldgarten","Adresse":"Frohburgstrasse 340","PLZ":"8057","Ort":"Zürich","Tel":"","www":"http://www.wohnenab60.ch/"}}
,{"type":"Feature","geometry":{"type":"Point","coordinates":[8.51057101336837,47.4190349945478]},"properties":{"Name":"Siedlung Riedenhalden","Adresse":"Riedenhaldenstrasse 233 + 235","PLZ":"8046","Ort":"Zürich","Tel":"","www":"http://www.wohnenab60.ch/"}}
,{"type":"Feature","geometry":{"type":"Point","coordinates":[8.48302718611226,47.4156391509525]},"properties":{"Name":"Siedlung Grünwald (ab ca. 2015)","Adresse":"Ecke Regensdorferstrasse / Im Stelzenacker","PLZ":"8049","Ort":"Zürich","Tel":"","www":"http://www.wohnenab60.ch/"}}
,{"type":"Feature","geometry":{"type":"Point","coordinates":[8.51375224324059,47.4160402707198]},"properties":{"Name":"Siedlung Frieden","Adresse":"Wehntalerstr. 440, Neuwiesenstr. 9, Einfangstr.10, Riedenhaldenstr. 90","PLZ":"8046","Ort":"Zürich","Tel":"","www":"http://www.wohnenab60.ch/"}}
,{"type":"Feature","geometry":{"type":"Point","coordinates":[8.5865327003195,47.4055268552518]},"properties":{"Name":"Siedlung Hirzenbach","Adresse":"Hirzenbachstrasse 87","PLZ":"8051","Ort":"Zürich","Tel":"","www":"http://www.wohnenab60.ch/"}}
,{"type":"Feature","geometry":{"type":"Point","coordinates":[8.58474457246906,47.3480206025782]},"properties":{"Name":"Siedlung Rebwies","Adresse":"Rebwiesstrasse 26 + 28","PLZ":"8702","Ort":"Zollikon","Tel":"","www":"http://www.wohnenab60.ch/"}}
,{"type":"Feature","geometry":{"type":"Point","coordinates":[8.52385164918787,47.3790305261735]},"properties":{"Name":"Siedlung Feldstrasse","Adresse":"Feldstrasse 110","PLZ":"8004","Ort":"Zürich","Tel":"","www":"http://www.wohnenab60.ch/feldstrasse"}}
,{"type":"Feature","geometry":{"type":"Point","coordinates":[8.55354285519681,47.3556388624284]},"properties":{"Name":"Siedlung Dufourstrasse","Adresse":"Baurstrasse 11","PLZ":"8008","Ort":"Zürich","Tel":"","www":"http://www.wohnenab60.ch/dufourstrasse"}}
,{"type":"Feature","geometry":{"type":"Point","coordinates":[8.54294385192087,47.4177803368941]},"properties":{"Name":"Siedlung Felsenrain","Adresse":"Neunbrunnenstrasse 6; 10; 14; 16 / Weisshau 8 / Felsenrainstrasse 35","PLZ":"8050","Ort":"Zürich","Tel":"","www":"http://www.wohnenab60.ch/"}}
,{"type":"Feature","geometry":{"type":"Point","coordinates":[8.48286636991122,47.387863916166]},"properties":{"Name":"Siedlung Krone Altstetten","Adresse":"Feldblumenstrasse 9","PLZ":"8048","Ort":"Zürich","Tel":"","www":"http://www.wohnenab60.ch/"}}
,{"type":"Feature","geometry":{"type":"Point","coordinates":[8.54688992008335,47.3928171434553]},"properties":{"Name":"Siedlung Irchel","Adresse":"Möhrlistrasse 108+110 / Letzistrasse 23a+b","PLZ":"8006","Ort":"Zürich","Tel":"","www":"http://www.wohnenab60.ch/"}}
,{"type":"Feature","geometry":{"type":"Point","coordinates":[8.5667860690374,47.3609251284238]},"properties":{"Name":"Siedlung Gattikerstrasse","Adresse":"Gattikerstrasse 5","PLZ":"8032","Ort":"Zürich","Tel":"","www":"http://www.wohnenab60.ch/"}}
,{"type":"Feature","geometry":{"type":"Point","coordinates":[8.53336386474906,47.3315450163736]},"properties":{"Name":"Siedlung Neubühl","Adresse":"Erligatterweg 59 + 61","PLZ":"8038","Ort":"Zürich","Tel":"","www":"http://www.wohnenab60.ch/"}}
,{"type":"Feature","geometry":{"type":"Point","coordinates":[8.4838661699249,47.4050534442726]},"properties":{"Name":"Siedlung Frankental","Adresse":"Limmatstrasse 364; 366; 372; 380; 388","PLZ":"8049","Ort":"Zürich","Tel":"","www":"http://www.wohnenab60.ch/"}}
,{"type":"Feature","geometry":{"type":"Point","coordinates":[8.51659278811886,47.3952898132401]},"properties":{"Name":"Siedlung Sydefädeli","Adresse":"Hönggerstrasse 129","PLZ":"8037","Ort":"Zürich","Tel":"","www":"http://www.wohnenab60.ch/"}}
,{"type":"Feature","geometry":{"type":"Point","coordinates":[8.54452746140879,47.3696322500628]},"properties":{"Name":"Siedlung Karl der Grosse","Adresse":"Oberdorfstrasse 36","PLZ":"8001","Ort":"Zürich","Tel":"","www":"http://www.wohnenab60.ch/"}}
,{"type":"Feature","geometry":{"type":"Point","coordinates":[8.54400090823818,47.3881514912504]},"properties":{"Name":"Siedlung Scheuchzerstrasse","Adresse":"Scheuchzerstrasse 85","PLZ":"8006","Ort":"Zürich","Tel":"","www":"http://www.wohnenab60.ch/"}}
,{"type":"Feature","geometry":{"type":"Point","coordinates":[8.49800502256415,47.3732170734657]},"properties":{"Name":"Siedlung Espenhof","Adresse":"Espenhofweg 31; 32; 34; 40; 42 / Langgrütstrasse 77; 79; 81; 83; 89","PLZ":"8047","Ort":"Zürich","Tel":"","www":"http://www.wohnenab60.ch/"}}
,{"type":"Feature","geometry":{"type":"Point","coordinates":[8.55005309518053,47.4224974439165]},"properties":{"Name":"Siedlung Seebach","Adresse":"","PLZ":"8052","Ort":"Zürich","Tel":"","www":"http://www.wohnenab60.ch/"}}
,{"type":"Feature","geometry":{"type":"Point","coordinates":[8.53761157156557,47.4290928856499]},"properties":{"Name":"Siedlung Köschenrüti","Adresse":"Traktorenstrasse","PLZ":"8052","Ort":"Zürich","Tel":"","www":"http://www.wohnenab60.ch/koeschenrueti_saw"}}
,{"type":"Feature","geometry":{"type":"Point","coordinates":[8.53394293911809,47.3816157722679]},"properties":{"Name":"Siedlung Konradstrasse","Adresse":"Konradstrasse 65","PLZ":"8005","Ort":"Zürich","Tel":"","www":"http://www.wohnenab60.ch/"}}
,{"type":"Feature","geometry":{"type":"Point","coordinates":[8.48210621899258,47.3835532195191]},"properties":{"Name":"Siedlung Buchlern","Adresse":"Eulenweg 24","PLZ":"8048","Ort":"Zürich","Tel":"","www":"http://www.wohnenab60.ch/"}}
]}
