{"name":"Kinderhaus","type":"FeatureCollection"
,"features":[
{"type":"Feature","geometry":{"type":"Point","coordinates":[8.4867909171567,47.3900333923078]},"properties":{"Name":"Zentrum Elch - Altstetten","Adresse":"Altstetterstrasse 118","PLZ":"8048","Ort":"Zürich","Tel":"+41 44 225 77 90","www":"http://www.zentrumelch.ch/verein"}}
,{"type":"Feature","geometry":{"type":"Point","coordinates":[8.53987731005327,47.4149236108468]},"properties":{"Name":"Zentrum Elch - Müslihuus / ACCU","Adresse":"Otto-Schütz-Weg 9","PLZ":"8050","Ort":"","Tel":"+41 43 333 43 36","www":"http://zentrumelch.ch/FamilienzentrenELCH/MslihuusDetail"}}
,{"type":"Feature","geometry":{"type":"Point","coordinates":[8.52443783403125,47.3407969822581]},"properties":{"Name":"Kinderhaus Entlisberg","Adresse":"Butzenstrasse 49","PLZ":"8038","Ort":"Zürich","Tel":"+41 44 412 89 89","www":"https://www.stadt-zuerich.ch/kitas"}}
,{"type":"Feature","geometry":{"type":"Point","coordinates":[8.53452860191197,47.4100181906279]},"properties":{"Name":"Zentrum Elch - Regensbergstrasse","Adresse":"Regensbergstrasse 209","PLZ":"8050","Ort":"Zürich","Tel":"+41 44 372 01 69","www":"http://www.zentrumelch.ch/"}}
,{"type":"Feature","geometry":{"type":"Point","coordinates":[8.50973310441855,47.3821154983378]},"properties":{"Name":"Familientreff Hard","Adresse":"Bullingerstrasse 60","PLZ":"8004","Ort":"Zürich","Tel":"+41 44 412 83 89","www":""}}
,{"type":"Feature","geometry":{"type":"Point","coordinates":[8.52443783403125,47.3407969822581]},"properties":{"Name":"Kinderhaus Entlisberg","Adresse":"Butzenstrasse 49","PLZ":"8038","Ort":"Zürich","Tel":"","www":""}}
,{"type":"Feature","geometry":{"type":"Point","coordinates":[8.57352572598469,47.4044335503072]},"properties":{"Name":"Zentrum Krokodil für Eltern und Kinder","Adresse":"Winterthurerstrasse 537","PLZ":"8304","Ort":"Zürich","Tel":"+41 44 321 06 21","www":"http://www.zentrum-krokodil.ch/index2.php"}}
,{"type":"Feature","geometry":{"type":"Point","coordinates":[8.49944794688936,47.4230015948344]},"properties":{"Name":"Zentrum Elch - Ce Ce Areal","Adresse":"Wehntalerstrasse 634","PLZ":"8046","Ort":"","Tel":"+41 43 960 15 17","www":"http://zentrumelch.ch/FamilienzentrenELCH/CeCeArealDetail"}}
,{"type":"Feature","geometry":{"type":"Point","coordinates":[8.51360103467939,47.4156837454415]},"properties":{"Name":"Zentrum Elch - Frieden","Adresse":"Wehntalerstrasse 440","PLZ":"8046","Ort":"","Tel":"+41 44 377 77 00","www":"http://zentrumelch.ch/FamilienzentrenELCH/FriedenDetail"}}
,{"type":"Feature","geometry":{"type":"Point","coordinates":[8.52290602541219,47.3780513558377]},"properties":{"Name":"Spielinsel Bäckeranlage","Adresse":"Ecke Stauffacherstrasse/Feldstrasse","PLZ":"8004","Ort":"Zürich","Tel":"+41 77 480 26 59","www":""}}
,{"type":"Feature","geometry":{"type":"Point","coordinates":[8.55025142187898,47.4224340251467]},"properties":{"Name":"Familienzentrum Katzenbach","Adresse":"Glatttalstrasse 1a","PLZ":"8052","Ort":"Zürich","Tel":"+41 44 300 12 28","www":"http://www.gfz-zh.ch"}}
,{"type":"Feature","geometry":{"type":"Point","coordinates":[8.52290746547787,47.3865787303946]},"properties":{"Name":"Kindertreff Viadukt","Adresse":"Viaduktstrasse 55","PLZ":"8005","Ort":"Zürich","Tel":"+41 44 412 83 94","www":"http://www.stadt-zuerich.ch/viadukt"}}
,{"type":"Feature","geometry":{"type":"Point","coordinates":[8.55566461104948,47.365856490141]},"properties":{"Name":"Kinderhaus Artergut","Adresse":"Klosbachstrasse 25","PLZ":"8032","Ort":"Zürich","Tel":"+41 44 412 72 00","www":"http://www.stadt-zuerich.ch/internet/sd/home/kinder/betreuung/Krippen/kha.html"}}
,{"type":"Feature","geometry":{"type":"Point","coordinates":[8.57104654622968,47.4062299196512]},"properties":{"Name":"Kinderhaus Schwamendingen","Adresse":"Aprikosenstrasse 12","PLZ":"8051","Ort":"Zürich","Tel":"+41 43 299 32 00","www":"http://www.stadt-zuerich.ch/internet/sd/home/kinder/betreuung/Krippen/schw.html"}}
]}
