{"name":"Jugendtreff","type":"FeatureCollection"
,"features":[
{"type":"Feature","geometry":{"type":"Point","coordinates":[8.57079371296418,47.4036867742274]},"properties":{"Name":"OJA Schwamendingen","Adresse":"Winterthurerstrasse 504","PLZ":"8051","Ort":"Zürich","Tel":"+41 44 322 11 61","www":"http://www.oja.ch/Schwamendingen"}}
,{"type":"Feature","geometry":{"type":"Point","coordinates":[8.52989553873963,47.3876193124961]},"properties":{"Name":"OJA Kreis 5","Adresse":"Sihlquai 240","PLZ":"8005","Ort":"Zürich","Tel":"+41 44 278 10 70","www":"http://www.oja.ch/oja-einrichtungen/kreis-5-planet5/index.html"}}
,{"type":"Feature","geometry":{"type":"Point","coordinates":[8.52929206210732,47.3930760601295]},"properties":{"Name":"OJA Wipkingen","Adresse":"Dammstrasse 54","PLZ":"8037","Ort":"Zürich","Tel":"+41 44 400 01 31","www":"http://www.oja.ch/Wipkingen"}}
,{"type":"Feature","geometry":{"type":"Point","coordinates":[8.57012608775345,47.414667311804]},"properties":{"Name":"Verein Jugendarbeit Auzelg (c/o Hort)","Adresse":"Auzelg 50","PLZ":"8050","Ort":"Zürich","Tel":"+41 44 321 60 45","www":"http://www.stadt-zuerich.ch/content/mobile/stzh/de/poi/kontakt_informationen/poi_erweitert.html?poiid=jt001"}}
,{"type":"Feature","geometry":{"type":"Point","coordinates":[8.48332792387165,47.3890573195615]},"properties":{"Name":"OJA Kreis 9 & Hard","Adresse":"Bachmattstrasse 66","PLZ":"8048","Ort":"Zürich","Tel":"+41 44 400 03 82","www":"http://www.oja.ch/oja-einrichtungen/kreis9hard/index.html"}}
,{"type":"Feature","geometry":{"type":"Point","coordinates":[8.53043373432349,47.3440866301946]},"properties":{"Name":"OJA Wollishofen-Leimbach","Adresse":"Albisstrasse 40","PLZ":"8038","Ort":"Zürich","Tel":"+41 43 243 11 49","www":"http://www.oja.ch/oja-einrichtungen/woll.-leimbach/index.html"}}
,{"type":"Feature","geometry":{"type":"Point","coordinates":[8.52344934140075,47.3722173998417]},"properties":{"Name":"OJA Kreis 3 & 4","Adresse":"Zweierstrasse 61","PLZ":"8004","Ort":"Zürich","Tel":"+41 44 299 30 21","www":"http://www.oja.ch/oja-einrichtungen/kreis3-4/index.html"}}
,{"type":"Feature","geometry":{"type":"Point","coordinates":[8.53942385943186,47.3833821212235]},"properties":{"Name":"Jugendkulturhaus Dynamo","Adresse":"Wasserwerkstrasse 21","PLZ":"8006","Ort":"Zürich","Tel":"+41 44 365 34 44","www":"http://www.dynamo.ch"}}
,{"type":"Feature","geometry":{"type":"Point","coordinates":[8.54104712009745,47.3888626780781]},"properties":{"Name":"OJA Kreis 6 & Wipkingen","Adresse":"Langmauerstrasse 7","PLZ":"8006","Ort":"Zürich","Tel":"+41 44 363 19 84","www":"http://www.oja.ch/oja-einrichtungen/kreis-6-wipkingen/index.html"}}
,{"type":"Feature","geometry":{"type":"Point","coordinates":[8.55057854868913,47.408911372583]},"properties":{"Name":"OJA Oerlikon","Adresse":"Dörflistrasse 76","PLZ":"8050","Ort":"Zürich","Tel":"+41 44 311 34 06","www":"http://www.oja.ch/oja-einrichtungen/oerlikon/index.html"}}
,{"type":"Feature","geometry":{"type":"Point","coordinates":[8.51683368415321,47.4123704470196]},"properties":{"Name":"OJA Affoltern","Adresse":"Glaubtenstrasse 27","PLZ":"8046","Ort":"Zürich","Tel":"+41 44 372 10 84","www":"http://www.oja.ch/oja-einrichtungen/affoltern/index.html"}}
,{"type":"Feature","geometry":{"type":"Point","coordinates":[8.52763912286343,47.3750128692355]},"properties":{"Name":"NetZ4","Adresse":"Stauffacherstrasse 54","PLZ":"8004","Ort":"Zürich","Tel":"+41 44 240 05 39","www":"http://www.netz4.ch"}}
,{"type":"Feature","geometry":{"type":"Point","coordinates":[8.52452692731283,47.3796102736013]},"properties":{"Name":"Verein Jugendtreff Kreis 4","Adresse":"Magnusstrasse 5","PLZ":"8004","Ort":"Zürich","Tel":"+41 44 242 88 55","www":"http://www.jugi4.ch"}}
]}
